{
  "type": "FeatureCollection",
  "features": [
    {
      "type": "Feature",
      "properties": {
        "norad_id": 67061,
        "name": "HULIANWANG DIGUI 16C",
        "group": "last-30-days",
        "lat": -49.97501617114794,
        "lon": -99.84609993001726,
        "alt_km": 801.0166466680976,
        "timestamp": "2025-12-18T07:01:53.343585+00:00",
        "meta_object_name": "HULIANWANG DIGUI 16C",
        "meta_object_id": "2025-295C",
        "meta_epoch": "2025-12-15T17:12:22.292352",
        "meta_mean_motion": 14.25729079,
        "meta_eccentricity": 0.00132682,
        "meta_inclination": 50.0012,
        "meta_ra_of_asc_node": 359.6606,
        "meta_arg_of_pericenter": 256.3366,
        "meta_mean_anomaly": 103.6071,
        "meta_ephemeris_type": 0,
        "meta_classification_type": "U",
        "meta_norad_cat_id": 67061,
        "meta_element_set_no": 999,
        "meta_rev_at_epoch": 54,
        "meta_bstar": 6.6638352e-05,
        "meta_mean_motion_dot": -1e-08,
        "meta_mean_motion_ddot": 0,
        "tle_line1": "1 67061U 25295C   25349.71692468 -.00000001  00000+0  66638-4 0  9993",
        "tle_line2": "2 67061  50.0012 359.6606 0013268 256.3366 103.6071 14.25729079   549"
      },
      "geometry": {
        "type": "Point",
        "coordinates": [
          -99.84609993001726,
          -49.97501617114794
        ]
      }
    },
    {
      "type": "Feature",
      "properties": {
        "norad_id": 67062,
        "name": "HULIANWANG DIGUI 16D",
        "group": "last-30-days",
        "lat": -49.95997913708711,
        "lon": -98.6874096251417,
        "alt_km": 800.969766019879,
        "timestamp": "2025-12-18T07:01:53.343597+00:00",
        "meta_object_name": "HULIANWANG DIGUI 16D",
        "meta_object_id": "2025-295D",
        "meta_epoch": "2025-12-17T23:01:59.773440",
        "meta_mean_motion": 14.25754267,
        "meta_eccentricity": 0.00131594,
        "meta_inclination": 50.0054,
        "meta_ra_of_asc_node": 350.1972,
        "meta_arg_of_pericenter": 271.6478,
        "meta_mean_anomaly": 88.2929,
        "meta_ephemeris_type": 0,
        "meta_classification_type": "U",
        "meta_norad_cat_id": 67062,
        "meta_element_set_no": 999,
        "meta_rev_at_epoch": 86,
        "meta_bstar": 0.00016228708,
        "meta_mean_motion_dot": 2.28e-06,
        "meta_mean_motion_ddot": 0,
        "tle_line1": "1 67062U 25295D   25351.95971960  .00000228  00000+0  16229-3 0  9990",
        "tle_line2": "2 67062  50.0054 350.1972 0013159 271.6478  88.2929 14.25754267   863"
      },
      "geometry": {
        "type": "Point",
        "coordinates": [
          -98.6874096251417,
          -49.95997913708711
        ]
      }
    },
    {
      "type": "Feature",
      "properties": {
        "norad_id": 67063,
        "name": "HULIANWANG DIGUI 16E",
        "group": "last-30-days",
        "lat": -49.76507927368345,
        "lon": -94.02257087536468,
        "alt_km": 801.0139443056369,
        "timestamp": "2025-12-18T07:01:53.343607+00:00",
        "meta_object_name": "HULIANWANG DIGUI 16E",
        "meta_object_id": "2025-295E",
        "meta_epoch": "2025-12-17T21:20:16.692576",
        "meta_mean_motion": 14.25887056,
        "meta_eccentricity": 0.00124802,
        "meta_inclination": 50.0061,
        "meta_ra_of_asc_node": 350.4927,
        "meta_arg_of_pericenter": 270.4953,
        "meta_mean_anomaly": 89.4531,
        "meta_ephemeris_type": 0,
        "meta_classification_type": "U",
        "meta_norad_cat_id": 67063,
        "meta_element_set_no": 999,
        "meta_rev_at_epoch": 85,
        "meta_bstar": 0.00015930884,
        "meta_mean_motion_dot": 2.22e-06,
        "meta_mean_motion_ddot": 0,
        "tle_line1": "1 67063U 25295E   25351.88908209  .00000222  00000+0  15931-3 0  9992",
        "tle_line2": "2 67063  50.0061 350.4927 0012480 270.4953  89.4531 14.25887056   850"
      },
      "geometry": {
        "type": "Point",
        "coordinates": [
          -94.02257087536468,
          -49.76507927368345
        ]
      }
    },
    {
      "type": "Feature",
      "properties": {
        "norad_id": 67064,
        "name": "HULIANWANG DIGUI 16F",
        "group": "last-30-days",
        "lat": -49.610276054505256,
        "lon": -91.90742489089452,
        "alt_km": 801.2120184925707,
        "timestamp": "2025-12-18T07:01:53.343646+00:00",
        "meta_object_name": "HULIANWANG DIGUI 16F",
        "meta_object_id": "2025-295F",
        "meta_epoch": "2025-12-17T23:00:50.173920",
        "meta_mean_motion": 14.25947779,
        "meta_eccentricity": 0.00120685,
        "meta_inclination": 50.0038,
        "meta_ra_of_asc_node": 350.1829,
        "meta_arg_of_pericenter": 265.3497,
        "meta_mean_anomaly": 94.6039,
        "meta_ephemeris_type": 0,
        "meta_classification_type": "U",
        "meta_norad_cat_id": 67064,
        "meta_element_set_no": 999,
        "meta_rev_at_epoch": 86,
        "meta_bstar": -0.0002160443,
        "meta_mean_motion_dot": -6.79e-06,
        "meta_mean_motion_ddot": 0,
        "tle_line1": "1 67064U 25295F   25351.95891405 -.00000679  00000+0 -21604-3 0  9992",
        "tle_line2": "2 67064  50.0038 350.1829 0012068 265.3497  94.6039 14.25947779   862"
      },
      "geometry": {
        "type": "Point",
        "coordinates": [
          -91.90742489089452,
          -49.610276054505256
        ]
      }
    },
    {
      "type": "Feature",
      "properties": {
        "norad_id": 67065,
        "name": "HULIANWANG DIGUI 16G",
        "group": "last-30-days",
        "lat": -49.596839419269116,
        "lon": -91.77666699706495,
        "alt_km": 800.9390510418507,
        "timestamp": "2025-12-18T07:01:53.343659+00:00",
        "meta_object_name": "HULIANWANG DIGUI 16G",
        "meta_object_id": "2025-295G",
        "meta_epoch": "2025-12-17T23:00:48.534048",
        "meta_mean_motion": 14.25952795,
        "meta_eccentricity": 0.00122795,
        "meta_inclination": 50.0012,
        "meta_ra_of_asc_node": 350.1811,
        "meta_arg_of_pericenter": 271.3766,
        "meta_mean_anomaly": 88.5741,
        "meta_ephemeris_type": 0,
        "meta_classification_type": "U",
        "meta_norad_cat_id": 67065,
        "meta_element_set_no": 999,
        "meta_rev_at_epoch": 86,
        "meta_bstar": 0.00015144029,
        "meta_mean_motion_dot": 2.04e-06,
        "meta_mean_motion_ddot": 0,
        "tle_line1": "1 67065U 25295G   25351.95889507  .00000204  00000+0  15144-3 0  9997",
        "tle_line2": "2 67065  50.0012 350.1811 0012279 271.3766  88.5741 14.25952795   862"
      },
      "geometry": {
        "type": "Point",
        "coordinates": [
          -91.77666699706495,
          -49.596839419269116
        ]
      }
    },
    {
      "type": "Feature",
      "properties": {
        "norad_id": 67066,
        "name": "HULIANWANG DIGUI 16H",
        "group": "last-30-days",
        "lat": -49.06466246704819,
        "lon": -86.71487261919167,
        "alt_km": 801.1489177838239,
        "timestamp": "2025-12-18T07:01:53.343670+00:00",
        "meta_object_name": "HULIANWANG DIGUI 16H",
        "meta_object_id": "2025-295H",
        "meta_epoch": "2025-12-17T22:59:55.463712",
        "meta_mean_motion": 14.26095759,
        "meta_eccentricity": 0.00114356,
        "meta_inclination": 50.0014,
        "meta_ra_of_asc_node": 350.1771,
        "meta_arg_of_pericenter": 268.5838,
        "meta_mean_anomaly": 91.3766,
        "meta_ephemeris_type": 0,
        "meta_classification_type": "U",
        "meta_norad_cat_id": 67066,
        "meta_element_set_no": 999,
        "meta_rev_at_epoch": 86,
        "meta_bstar": 0.00015897322,
        "meta_mean_motion_dot": 2.23e-06,
        "meta_mean_motion_ddot": 0,
        "tle_line1": "1 67066U 25295H   25351.95828083  .00000223  00000+0  15897-3 0  9996",
        "tle_line2": "2 67066  50.0014 350.1771 0011435 268.5838  91.3766 14.26095759   869"
      },
      "geometry": {
        "type": "Point",
        "coordinates": [
          -86.71487261919167,
          -49.06466246704819
        ]
      }
    },
    {
      "type": "Feature",
      "properties": {
        "norad_id": 67067,
        "name": "HULIANWANG DIGUI 16J",
        "group": "last-30-days",
        "lat": -48.40763848883571,
        "lon": -82.28263156621877,
        "alt_km": 800.9898227056365,
        "timestamp": "2025-12-18T07:01:53.343680+00:00",
        "meta_object_name": "HULIANWANG DIGUI 16J",
        "meta_object_id": "2025-295J",
        "meta_epoch": "2025-12-17T21:18:14.496192",
        "meta_mean_motion": 14.26250814,
        "meta_eccentricity": 0.00108759,
        "meta_inclination": 50.0053,
        "meta_ra_of_asc_node": 350.4773,
        "meta_arg_of_pericenter": 272.1043,
        "meta_mean_anomaly": 87.8625,
        "meta_ephemeris_type": 0,
        "meta_classification_type": "U",
        "meta_norad_cat_id": 67067,
        "meta_element_set_no": 999,
        "meta_rev_at_epoch": 85,
        "meta_bstar": -0.00030612735,
        "meta_mean_motion_dot": -9e-06,
        "meta_mean_motion_ddot": 0,
        "tle_line1": "1 67067U 25295J   25351.88766778 -.00000900  00000+0 -30613-3 0  9998",
        "tle_line2": "2 67067  50.0053 350.4773 0010875 272.1043  87.8625 14.26250814   852"
      },
      "geometry": {
        "type": "Point",
        "coordinates": [
          -82.28263156621877,
          -48.40763848883571
        ]
      }
    }
  ]
}